CCSDS_OMM_VERS = 2.0
CREATION_DATE  = 
ORIGINATOR     = 

OBJECT_NAME    = COSMOS 2151
OBJECT_ID      = 1991-042A
CENTER_NAME    = EARTH
REF_FRAME      = TEME
TIME_SYSTEM    = UTC
MEAN_ELEMENT_THEORY = SGP/SGP4

EPOCH          = 2025-11-22T14:32:20.445216
MEAN_MOTION    = 14.99582766
ECCENTRICITY   = .00140178
INCLINATION    = 82.4976
RA_OF_ASC_NODE = 186.9029
ARG_OF_PERICENTER = 63.5047
MEAN_ANOMALY   = 296.7613

EPHEMERIS_TYPE = 0
CLASSIFICATION_TYPE = U
NORAD_CAT_ID   = 21422
ELEMENT_SET_NO = 999
REV_AT_EPOCH   = 84714
BSTAR          = .13262214E-3
MEAN_MOTION_DOT = .1661E-4
MEAN_MOTION_DDOT = 0

CCSDS_OMM_VERS = 2.0
CREATION_DATE  = 
ORIGINATOR     = 

OBJECT_NAME    = SL-14 R/B
OBJECT_ID      = 1991-042B
CENTER_NAME    = EARTH
REF_FRAME      = TEME
TIME_SYSTEM    = UTC
MEAN_ELEMENT_THEORY = SGP/SGP4

EPOCH          = 2025-11-22T10:55:36.081408
MEAN_MOTION    = 14.81711947
ECCENTRICITY   = .00157799
INCLINATION    = 82.4913
RA_OF_ASC_NODE = 320.7474
ARG_OF_PERICENTER = 230.2008
MEAN_ANOMALY   = 129.7818

EPHEMERIS_TYPE = 0
CLASSIFICATION_TYPE = U
NORAD_CAT_ID   = 21423
ELEMENT_SET_NO = 999
REV_AT_EPOCH   = 83719
BSTAR          = .62375978E-4
MEAN_MOTION_DOT = .515E-5
MEAN_MOTION_DDOT = 0

CCSDS_OMM_VERS = 2.0
CREATION_DATE  = 
ORIGINATOR     = 

OBJECT_NAME    = ERS-1
OBJECT_ID      = 1991-050A
CENTER_NAME    = EARTH
REF_FRAME      = TEME
TIME_SYSTEM    = UTC
MEAN_ELEMENT_THEORY = SGP/SGP4

EPOCH          = 2025-11-22T13:51:26.657568
MEAN_MOTION    = 14.39342476
ECCENTRICITY   = .00324163
INCLINATION    = 98.7915
RA_OF_ASC_NODE = 337.1272
ARG_OF_PERICENTER = 158.3355
MEAN_ANOMALY   = 201.9212

EPHEMERIS_TYPE = 0
CLASSIFICATION_TYPE = U
NORAD_CAT_ID   = 21574
ELEMENT_SET_NO = 999
REV_AT_EPOCH   = 80032
BSTAR          = .12183358E-3
MEAN_MOTION_DOT = .335E-5
MEAN_MOTION_DDOT = 0

CCSDS_OMM_VERS = 2.0
CREATION_DATE  = 
ORIGINATOR     = 

OBJECT_NAME    = ARIANE 40 R/B
OBJECT_ID      = 1991-050F
CENTER_NAME    = EARTH
REF_FRAME      = TEME
TIME_SYSTEM    = UTC
MEAN_ELEMENT_THEORY = SGP/SGP4

EPOCH          = 2025-11-22T02:53:01.182048
MEAN_MOTION    = 14.42788384
ECCENTRICITY   = .00039641
INCLINATION    = 98.2193
RA_OF_ASC_NODE = 17.2922
ARG_OF_PERICENTER = 55.6577
MEAN_ANOMALY   = 304.4988

EPHEMERIS_TYPE = 0
CLASSIFICATION_TYPE = U
NORAD_CAT_ID   = 21610
ELEMENT_SET_NO = 999
REV_AT_EPOCH   = 80348
BSTAR          = .12671917E-3
MEAN_MOTION_DOT = .381E-5
MEAN_MOTION_DDOT = 0

CCSDS_OMM_VERS = 2.0
CREATION_DATE  = 
ORIGINATOR     = 

OBJECT_NAME    = INTERCOSMOS 25
OBJECT_ID      = 1991-086A
CENTER_NAME    = EARTH
REF_FRAME      = TEME
TIME_SYSTEM    = UTC
MEAN_ELEMENT_THEORY = SGP/SGP4

EPOCH          = 2025-11-22T13:44:55.025376
MEAN_MOTION    = 12.11634827
ECCENTRICITY   = .14876008
INCLINATION    = 82.6075
RA_OF_ASC_NODE = 14.7692
ARG_OF_PERICENTER = 347.8792
MEAN_ANOMALY   = 8.9838

EPHEMERIS_TYPE = 0
CLASSIFICATION_TYPE = U
NORAD_CAT_ID   = 21819
ELEMENT_SET_NO = 999
REV_AT_EPOCH   = 48371
BSTAR          = .206308E-3
MEAN_MOTION_DOT = .1054E-4
MEAN_MOTION_DDOT = 0

CCSDS_OMM_VERS = 2.0
CREATION_DATE  = 
ORIGINATOR     = 

OBJECT_NAME    = SL-8 R/B
OBJECT_ID      = 1992-008B
CENTER_NAME    = EARTH
REF_FRAME      = TEME
TIME_SYSTEM    = UTC
MEAN_ELEMENT_THEORY = SGP/SGP4

EPOCH          = 2025-11-22T14:54:32.785920
MEAN_MOTION    = 13.75952614
ECCENTRICITY   = .00360675
INCLINATION    = 82.9270
RA_OF_ASC_NODE = 347.4123
ARG_OF_PERICENTER = 74.5465
MEAN_ANOMALY   = 45.8839

EPHEMERIS_TYPE = 0
CLASSIFICATION_TYPE = U
NORAD_CAT_ID   = 21876
ELEMENT_SET_NO = 999
REV_AT_EPOCH   = 69469
BSTAR          = .11296923E-3
MEAN_MOTION_DOT = .126E-5
MEAN_MOTION_DDOT = 0

CCSDS_OMM_VERS = 2.0
CREATION_DATE  = 
ORIGINATOR     = 

OBJECT_NAME    = SL-8 R/B
OBJECT_ID      = 1992-020B
CENTER_NAME    = EARTH
REF_FRAME      = TEME
TIME_SYSTEM    = UTC
MEAN_ELEMENT_THEORY = SGP/SGP4

EPOCH          = 2025-11-22T06:24:29.466144
MEAN_MOTION    = 13.75523315
ECCENTRICITY   = .00277716
INCLINATION    = 82.9315
RA_OF_ASC_NODE = 233.5182
ARG_OF_PERICENTER = 236.6524
MEAN_ANOMALY   = 241.8162

EPHEMERIS_TYPE = 0
CLASSIFICATION_TYPE = U
NORAD_CAT_ID   = 21938
ELEMENT_SET_NO = 999
REV_AT_EPOCH   = 68636
BSTAR          = .8243285E-4
MEAN_MOTION_DOT = .94E-6
MEAN_MOTION_DDOT = 0

CCSDS_OMM_VERS = 2.0
CREATION_DATE  = 
ORIGINATOR     = 

OBJECT_NAME    = USA 81
OBJECT_ID      = 1992-023A
CENTER_NAME    = EARTH
REF_FRAME      = TEME
TIME_SYSTEM    = UTC
MEAN_ELEMENT_THEORY = SGP/SGP4

EPOCH          = 2025-11-22T13:33:41.084640
MEAN_MOTION    = 14.32316666
ECCENTRICITY   = .00023525
INCLINATION    = 85.0099
RA_OF_ASC_NODE = 193.2097
ARG_OF_PERICENTER = 68.4615
MEAN_ANOMALY   = 291.6828

EPHEMERIS_TYPE = 0
CLASSIFICATION_TYPE = U
NORAD_CAT_ID   = 21949
ELEMENT_SET_NO = 999
REV_AT_EPOCH   = 7945
BSTAR          = .6930307E-4
MEAN_MOTION_DOT = .207E-5
MEAN_MOTION_DDOT = 0

CCSDS_OMM_VERS = 2.0
CREATION_DATE  = 
ORIGINATOR     = 

OBJECT_NAME    = COSMOS 2219
OBJECT_ID      = 1992-076A
CENTER_NAME    = EARTH
REF_FRAME      = TEME
TIME_SYSTEM    = UTC
MEAN_ELEMENT_THEORY = SGP/SGP4

EPOCH          = 2025-11-22T05:02:43.470240
MEAN_MOTION    = 14.14067303
ECCENTRICITY   = .00182924
INCLINATION    = 71.0608
RA_OF_ASC_NODE = 242.7450
ARG_OF_PERICENTER = 355.8517
MEAN_ANOMALY   = 4.2451

EPHEMERIS_TYPE = 0
CLASSIFICATION_TYPE = U
NORAD_CAT_ID   = 22219
ELEMENT_SET_NO = 999
REV_AT_EPOCH   = 70318
BSTAR          = -.44220175E-4
MEAN_MOTION_DOT = -.131E-5
MEAN_MOTION_DDOT = 0

CCSDS_OMM_VERS = 2.0
CREATION_DATE  = 
ORIGINATOR     = 

OBJECT_NAME    = SL-16 R/B
OBJECT_ID      = 1992-076B
CENTER_NAME    = EARTH
REF_FRAME      = TEME
TIME_SYSTEM    = UTC
MEAN_ELEMENT_THEORY = SGP/SGP4

EPOCH          = 2025-11-22T14:28:46.619040
MEAN_MOTION    = 14.16835824
ECCENTRICITY   = .00151411
INCLINATION    = 71.0011
RA_OF_ASC_NODE = 53.9474
ARG_OF_PERICENTER = 260.1860
MEAN_ANOMALY   = 198.3467

EPHEMERIS_TYPE = 0
CLASSIFICATION_TYPE = U
NORAD_CAT_ID   = 22220
ELEMENT_SET_NO = 999
REV_AT_EPOCH   = 70666
BSTAR          = .75077963E-4
MEAN_MOTION_DOT = .103E-5
MEAN_MOTION_DDOT = 0

CCSDS_OMM_VERS = 2.0
CREATION_DATE  = 
ORIGINATOR     = 

OBJECT_NAME    = COSMOS 2221
OBJECT_ID      = 1992-080A
CENTER_NAME    = EARTH
REF_FRAME      = TEME
TIME_SYSTEM    = UTC
MEAN_ELEMENT_THEORY = SGP/SGP4

EPOCH          = 2025-11-22T14:44:13.426656
MEAN_MOTION    = 14.95650737
ECCENTRICITY   = .00144607
INCLINATION    = 82.5059
RA_OF_ASC_NODE = 21.5862
ARG_OF_PERICENTER = 186.3149
MEAN_ANOMALY   = 173.7893

EPHEMERIS_TYPE = 0
CLASSIFICATION_TYPE = U
NORAD_CAT_ID   = 22236
ELEMENT_SET_NO = 999
REV_AT_EPOCH   = 76478
BSTAR          = .16643476E-3
MEAN_MOTION_DOT = .1879E-4
MEAN_MOTION_DDOT = 0

CCSDS_OMM_VERS = 2.0
CREATION_DATE  = 
ORIGINATOR     = 

OBJECT_NAME    = SL-16 R/B
OBJECT_ID      = 1992-093B
CENTER_NAME    = EARTH
REF_FRAME      = TEME
TIME_SYSTEM    = UTC
MEAN_ELEMENT_THEORY = SGP/SGP4

EPOCH          = 2025-11-22T04:17:25.766016
MEAN_MOTION    = 14.15428187
ECCENTRICITY   = .00021305
INCLINATION    = 71.0217
RA_OF_ASC_NODE = 229.9550
ARG_OF_PERICENTER = 134.5627
MEAN_ANOMALY   = 225.5670

EPHEMERIS_TYPE = 0
CLASSIFICATION_TYPE = U
NORAD_CAT_ID   = 22285
ELEMENT_SET_NO = 999
REV_AT_EPOCH   = 69794
BSTAR          = -.11241768E-4
MEAN_MOTION_DOT = -.69E-6
MEAN_MOTION_DDOT = 0

