COSMOS 2151             
1 21422U 91042A   25326.60579219  .00001661  00000+0  13262-3 0  9994
2 21422  82.4976 186.9029 0014017  63.5047 296.7613 14.99582766847147
SL-14 R/B               
1 21423U 91042B   25326.45527872  .00000515  00000+0  62376-4 0  9994
2 21423  82.4913 320.7474 0015779 230.2008 129.7818 14.81711947837199
ERS-1                   
1 21574U 91050A   25326.57739187  .00000335  00000+0  12183-3 0  9997
2 21574  98.7915 337.1272 0032416 158.3355 201.9212 14.39342476800324
ARIANE 40 R/B           
1 21610U 91050F   25326.12015257  .00000381  00000+0  12672-3 0  9998
2 21610  98.2193  17.2922 0003964  55.6577 304.4988 14.42788384803482
INTERCOSMOS 25          
1 21819U 91086A   25326.57285909  .00001054  00000+0  20631-3 0  9992
2 21819  82.6075  14.7692 1487600 347.8792   8.9838 12.11634827483710
SL-8 R/B                
1 21876U 92008B   25326.62121280  .00000126  00000+0  11297-3 0  9994
2 21876  82.9270 347.4123 0036067  74.5465  45.8839 13.75952614694695
SL-8 R/B                
1 21938U 92020B   25326.26700771  .00000094  00000+0  82433-4 0  9990
2 21938  82.9315 233.5182 0027771 236.6524 241.8162 13.75523315686367
USA 81                  
1 21949U 92023A   25326.56505885  .00000207  00000+0  69303-4 0  9994
2 21949  85.0099 193.2097 0002352  68.4615 291.6828 14.32316666 79450
COSMOS 2219             
1 22219U 92076A   25326.21022535 -.00000131  00000+0 -44220-4 0  9990
2 22219  71.0608 242.7450 0018292 355.8517   4.2451 14.14067303703184
SL-16 R/B               
1 22220U 92076B   25326.60331735  .00000103  00000+0  75078-4 0  9992
2 22220  71.0011  53.9474 0015141 260.1860 198.3467 14.16835824706662
COSMOS 2221             
1 22236U 92080A   25326.61404429  .00001879  00000+0  16643-3 0  9999
2 22236  82.5059  21.5862 0014460 186.3149 173.7893 14.95650737764784
SL-16 R/B               
1 22285U 92093B   25326.17877044 -.00000069  00000+0 -11242-4 0  9998
2 22285  71.0217 229.9550 0002130 134.5627 225.5670 14.15428187697948
